STARLINK-5340           
1 56506U 23065D   23154.80508639  .00002443  00000+0  22076-4 0  9995
2 56506  42.9999 320.0619 0002063 269.6783  90.3848 15.71356192  4454
STARLINK-5333           
1 56507U 23065E   23154.86274717 -.00000212  00000+0  18357-5 0  9990
2 56507  43.0020 319.6356 0001915 274.3097  85.7552 15.71352891  4463
STARLINK-5335           
1 56508U 23065F   23154.86833202  .00070509  00000+0  53612-3 0  9997
2 56508  42.9998 319.6762 0002123 272.3105  87.7520 15.71375096  4466
STARLINK-5334           
1 56509U 23065G   23154.93147582  .00003496  00000+0  30101-4 0  9995
2 56509  42.9999 319.2895 0002320 271.2940  88.7662 15.71356489  3681
STARLINK-5339           
1 56510U 23065H   23154.93168372  .00068199  00000+0  51871-3 0  9994
2 56510  43.0000 319.2911 0002093 271.4740  88.5888 15.71379742  3689
STARLINK-5351           
1 56511U 23065J   23154.93125611  .00031167  00000+0  23973-3 0  9991
2 56511  42.9999 319.2884 0002320 269.0967  90.9635 15.71403344  3684
STARLINK-5349           
1 56512U 23065K   23154.86801964  .00004200  00000+0  35455-4 0  9993
2 56512  43.0002 319.6738 0001804 279.7089  80.3575 15.71358356  4468
STARLINK-5329           
1 56513U 23065L   23154.86749138  .00001271  00000+0  13139-4 0  9998
2 56513  43.0001 319.6700 0002097 272.7277  87.3351 15.71358573  4464
STARLINK-5343           
1 56514U 23065M   23154.84595800  .00078129  00000+0  56310-3 0  9995
2 56514  43.0024 319.4980 0003153 294.8761  65.1780 15.72599682  4464
STARLINK-5348           
1 56515U 23065N   23154.93094644  .00033993  00000+0  26128-3 0  9990
2 56515  42.9997 319.2856 0001939 266.6912  93.3734 15.71384608  3681
STARLINK-5342           
1 56516U 23065P   23154.93115851  .00067738  00000+0  51540-3 0  9995
2 56516  43.0000 319.2877 0001932 265.6654  94.3993 15.71373498  3680
STARLINK-5345           
1 56517U 23065Q   23154.86707025  .00001603  00000+0  15671-4 0  9993
2 56517  42.9998 319.6666 0002120 271.0875  88.9750 15.71359941  4465
STARLINK-5346           
1 56518U 23065R   23154.86728240  .00014648  00000+0  11490-3 0  9993
2 56518  43.0000 319.6674 0001940 271.8764  88.1881 15.71365725  4469
STARLINK-6313           
1 56519U 23065S   23154.93042243  .00069648  00000+0  52966-3 0  9997
2 56519  42.9999 319.2820 0001786 267.1581  92.9082 15.71376145  3684
STARLINK-6344           
1 56520U 23065T   23154.93073824  .00014275  00000+0  11204-3 0  9994
2 56520  43.0001 319.2837 0002036 267.8464  92.2170 15.71371091  3682
STARLINK-6333           
1 56521U 23065U   23154.86665287  .00009044  00000+0  72317-4 0  9998
2 56521  42.9998 319.6637 0001944 265.4988  94.5658 15.71363103  4468
STARLINK-6327           
1 56522U 23065V   23154.86696835  .00006227  00000+0  50889-4 0  9992
2 56522  43.0001 319.6659 0002088 273.3203  86.7425 15.71359712  4464
STARLINK-6328           
1 56523U 23065W   23154.93000502  .00002012  00000+0  18789-4 0  9992
2 56523  43.0000 319.2789 0001730 273.3438  86.7232 15.71356409  3686
STARLINK-6323           
1 56524U 23065X   23154.93031657  .00070867  00000+0  53855-3 0  9993
2 56524  42.9999 319.2813 0002203 274.5738  85.4878 15.71385965  3683
STARLINK-6329           
1 56525U 23065Y   23154.86622924  .00008582  00000+0  68793-4 0  9992
2 56525  42.9998 319.6606 0002072 266.6433  93.4198 15.71365524  4465
STARLINK-6317           
1 56526U 23065Z   23154.86654570  .00029495  00000+0  22735-3 0  9996
2 56526  42.9999 319.6620 0001931 266.3121  93.7526 15.71378219  4460
STARLINK-6335           
1 56527U 23065AA  23154.92968790  .00014171  00000+0  11126-3 0  9993
2 56527  42.9996 319.2754 0001697 285.3492  74.7188 15.71369134  3685
STARLINK-6337           
1 56528U 23065AB  23154.86633439  .00008964  00000+0  71694-4 0  9996
2 56528  42.9998 319.6613 0001775 268.9868  91.0797 15.71368426  4465
STARLINK-6307           
1 56529U 23065AC  23154.86570445  .00005309  00000+0  43897-4 0  9998
2 56529  42.9997 319.6561 0002161 262.6319  97.4304 15.71361479  4464
STARLINK-6318           
1 56530U 23065AD  23154.92957842  .00012163  00000+0  95989-4 0  9992
2 56530  42.9998 319.2746 0002116 266.4521  93.6105 15.71373628  3684
STARLINK-6280           
1 56531U 23065AE  23154.92915973  .00033243  00000+0  25563-3 0  9994
2 56531  42.9995 319.2716 0001833 269.9037  90.1620 15.71383205  3680
STARLINK-6319           
1 56532U 23065AF  23154.92947367  .00036020  00000+0  27656-3 0  9998
2 56532  42.9994 319.2750 0002035 268.8854  91.1781 15.71387277  3680
STARLINK-6310           
1 56533U 23065AG  23154.86549656  .00002365  00000+0  21476-4 0  9991
2 56533  42.9996 319.6543 0001996 273.8187  86.2453 15.71354425  4464
STARLINK-6308           
1 56534U 23065AH  23154.92937206  .00043217  00000+0  33089-3 0  9994
2 56534  42.9997 319.2741 0001925 267.2673  92.7975 15.71383903  3688
STARLINK-6309           
1 56535U 23065AJ  23155.25001157 -.00875500  00000+0 -10392-1 0  9999
2 56535  42.9998 317.4996 0001595 269.0755  42.2118 15.62699579  3730
STARLINK-6312           
1 56536U 23065AK  23155.25001157 -.00885878  00000+0 -10527-1 0  9999
2 56536  42.9999 317.5006 0001507 265.2543  45.3410 15.62699795  3730
STARLINK-6311           
1 56537U 23065AL  23155.25001157 -.00887509  00000+0 -10543-1 0  9991
2 56537  42.9997 317.4981 0001490 263.9567  48.0202 15.62712432  3735
STARLINK-6314           
1 56538U 23065AM  23154.86539110  .00017662  00000+0  13777-3 0  9990
2 56538  42.9997 319.6547 0001691 269.9692  90.0982 15.71367670  4469
STARLINK-6135           
1 56539U 23065AN  23155.25001157 -.00875913  00000+0 -10392-1 0  9991
2 56539  42.9998 317.4963 0001636 268.8803  43.7872 15.62712316  3733
STARLINK-6136           
1 56540U 23065AP  23155.25001157 -.00887367  00000+0 -10549-1 0  9993
2 56540  42.9996 317.5027 0001468 264.1412  45.7643 15.62693782  3736
STARLINK-6249           
1 56541U 23065AQ  23155.25001157 -.00877937  00000+0 -10411-1 0  9994
2 56541  42.9996 317.4913 0001558 268.1117  46.6285 15.62730590  3737
STARLINK-6266           
1 56542U 23065AR  23154.87489813 -.00448080  00000+0 -47928-2 0  9998
2 56542  42.9993 319.7302 0002343 275.4903  84.5695 15.64396869  4465
STARLINK-6228           
1 56543U 23065AS  23155.25001157 -.00876203  00000+0 -10384-1 0  9990
2 56543  42.9994 317.4879 0001574 265.0327  51.0885 15.62741485  3736
STARLINK-6226           
1 56544U 23065AT  23155.25001157 -.00881033  00000+0 -10453-1 0  9995
2 56544  42.9998 317.4926 0001530 264.0941  49.9557 15.62726353  3736
STARLINK-6086           
1 56545U 23065AU  23155.25001157 -.00876897  00000+0 -10388-1 0  9995
2 56545  42.9997 317.4846 0001564 264.6767  52.8249 15.62753744  3731
STARLINK-6187           
1 56546U 23065AV  23155.25001157 -.00877446  00000+0 -10402-1 0  9994
2 56546  42.9997 317.4891 0001597 269.6763  45.7535 15.62736693  3732
STARLINK-6291           
1 56547U 23065AW  23155.25001157 -.00877359  00000+0 -10389-1 0  9992
2 56547  42.9995 317.4813 0001555 266.9416  51.9400 15.62765944  3735
STARLINK-6244           
1 56548U 23065AX  23155.25001157 -.00874983  00000+0 -10366-1 0  9998
2 56548  42.9997 317.4857 0001587 266.0114  50.8000 15.62746767  3733
STARLINK-6263           
1 56549U 23065AY  23155.25001157 -.00878712  00000+0 -10401-1 0  9993
2 56549  42.9995 317.4778 0001586 265.2402  55.0202 15.62779145  3731
STARLINK-6255           
1 56550U 23065AZ  23155.25001157 -.00877345  00000+0 -10391-1 0  9994
2 56550  42.9996 317.4828 0001591 268.2905  49.9002 15.62760369  3735
STARLINK-6199           
1 56551U 23065BA  23155.25001157 -.00875419  00000+0 -10354-1 0  9994
2 56551  42.9995 317.4743 0001645 264.1489  57.4908 15.62789402  3731
STARLINK-5802           
1 56552U 23065BB  23155.25001157 -.00877191  00000+0 -10384-1 0  9997
2 56552  42.9996 317.4789 0001612 268.0207  51.5496 15.62772382  3734
STARLINK-6074           
1 56553U 23065BC  23155.25001157 -.00875723  00000+0 -10356-1 0  9996
2 56553  42.9996 317.4727 0001567 267.9659  54.3652 15.62794770  3735
STARLINK-6295           
1 56554U 23065BD  23154.87358009 -.00427259  00000+0 -46098-2 0  9995
2 56554  42.9997 319.7195 0001845 249.7142 110.3525 15.64118668  4466
STARLINK-6252           
1 56555U 23065BE  23155.25001157 -.00874475  00000+0 -10335-1 0  9998
2 56555  42.9994 317.4697 0001623 263.2027  60.5069 15.62806229  3736
STARLINK-5302           
1 56556U 23065BF  23155.25001157 -.00875600  00000+0 -10352-1 0  9999
2 56556  42.9998 317.4706 0001571 268.6098  54.4109 15.62800642  3731
STARLINK-6265           
1 56557U 23065BG  23155.25001157 -.00876016  00000+0 -10352-1 0  9992
2 56557  42.9994 317.4678 0001622 269.2681  55.1304 15.62813373  3738
STARLINK-6286           
1 56558U 23065BH  23155.25001157 -.00876443  00000+0 -10355-1 0  9990
2 56558  42.9995 317.4657 0001623 262.0499  63.0382 15.62819502  3730
FALCON 9 DEB            
1 56559U 23065BJ  23154.87105991  .00330854  50833-4  82514-3 0  9990
2 56559  43.0146 317.0243 0014595 124.2350 235.9911 15.94810617  4074
FALCON 9 DEB            
1 56560U 23065BK  23154.86381882  .00342618  54504-4  81794-3 0  9995
2 56560  43.0109 316.9589 0012152 129.5779 230.6173 15.95672251  4079
FALCON 9 DEB            
1 56561U 23065BL  23155.16141945  .00336704  53742-4  74478-3 0  9997
2 56561  43.0084 314.8653 0010604 108.1359 252.0674 15.97093144  4128
FALCON 9 DEB            
1 56562U 23065BM  23154.91218112  .00330470  51658-4  75780-3 0  9996
2 56562  43.0053 316.4371 0010201 109.9156 250.2821 15.96452570  4087
BEIDOU-3 G4             
1 56564U 23066A   23154.77411162 -.00000091  00000+0  00000+0 0  9996
2 56564   3.0725 289.3629 0006888 183.4369 217.8568  1.00272163   276
CZ-3B R/B               
1 56565U 23066B   23154.83192590  .00076330  10057-5  19863-2 0  9992
2 56565  28.3414 267.1010 7218833 190.4025 136.9005  2.40486592   432
